[{"OBJECT_NAME":"STARLINK-31008","OBJECT_ID":"2023-203U","EPOCH":"2026-03-09T09:39:41.733504","MEAN_MOTION":15.27575423,"ECCENTRICITY":0.00015317,"INCLINATION":43.0042,"RA_OF_ASC_NODE":69.0447,"ARG_OF_PERICENTER":259.8871,"MEAN_ANOMALY":100.1808,"EPHEMERIS_TYPE":0,"CLASSIFICATION_TYPE":"U","NORAD_CAT_ID":58636,"ELEMENT_SET_NO":999,"REV_AT_EPOCH":12474,"BSTAR":-4.4708042e-5,"MEAN_MOTION_DOT":-1.492e-5,"MEAN_MOTION_DDOT":0},{"OBJECT_NAME":"NUSAT-50 (NANCY ROMAN)","OBJECT_ID":"2024-149AB","EPOCH":"2026-03-09T19:15:16.765632","MEAN_MOTION":15.29713355,"ECCENTRICITY":0.00025229,"INCLINATION":97.3817,"RA_OF_ASC_NODE":150.7693,"ARG_OF_PERICENTER":238.0469,"MEAN_ANOMALY":122.0527,"EPHEMERIS_TYPE":0,"CLASSIFICATION_TYPE":"U","NORAD_CAT_ID":60493,"ELEMENT_SET_NO":999,"REV_AT_EPOCH":8693,"BSTAR":0.0004225155,"MEAN_MOTION_DOT":0.00012094,"MEAN_MOTION_DDOT":0}]
