STARLINK-31008          
1 58636U 23203U   26068.40256636 -.00001492  00000+0 -44708-4 0  9996
2 58636  43.0042  69.0447 0001531 259.8871 100.1808 15.27575423124740
NUSAT-50 (NANCY ROMAN)  
1 60493U 24149AB  26068.80227738  .00012094  00000+0  42252-3 0  9994
2 60493  97.3817 150.7693 0002523 238.0469 122.0527 15.29713355 86930
